NORAD_CAT_ID,OBJECT_NAME,OBJECT_TYPE,EPOCH,MEAN_MOTION,ECCENTRICITY,INCLINATION,RA_OF_ASC_NODE,ARG_OF_PERICENTER,MEAN_ANOMALY,BSTAR,MEAN_MOTION_DOT,MEAN_MOTION_DDOT,TLE_LINE0,TLE_LINE1,TLE_LINE2,SEMIMAJOR_AXIS,PERIOD,APOGEE,PERIGEE,DECAYED
54185.0,STARLINK-5235,PAYLOAD,2023-03-29 10:28:17,15.08842897,0.0001349,53.2174,155.3463,68.5361,291.5775,2.9005e-05,1.74e-06,0.0,0 STARLINK-5235,1 54185U 22141AE  23088.43631333  .00000174  00000-0  29005-4 0  9992,2 54185  53.2174 155.3463 0001349  68.5361 291.5775 15.08842897 23610,6917.872,95.437,540.67,538.803,0.0
54185.0,STARLINK-5235,PAYLOAD,2023-03-29 12:03:40,15.08847351,0.0001408,53.2168,155.0478,83.2972,276.818,8.1496e-05,1.01e-05,0.0,0 STARLINK-5235,1 54185U 22141AE  23088.50255074  .00001010  00000-0  81496-4 0  9996,2 54185  53.2168 155.0478 0001408  83.2972 276.8180 15.08847351 23395,6917.858,95.437,540.697,538.749,0.0
54185.0,STARLINK-5235,PAYLOAD,2023-03-29 21:35:59,15.0884514,0.0001446,53.2169,153.2646,74.1925,285.9226,0.00011264,1.505e-05,0.0,0 STARLINK-5235,1 54185U 22141AE  23088.89999217  .00001505  00000-0  11264-3 0  9996,2 54185  53.2169 153.2646 0001446  74.1925 285.9226 15.08845140 23455,6917.865,95.437,540.73,538.729,0.0
54185.0,STARLINK-5235,PAYLOAD,2023-03-30 10:19:04,15.08841218,0.0001495,53.2165,150.8862,70.172,289.9433,9.9741e-05,1.3e-05,0.0,0 STARLINK-5235,1 54185U 22141AE  23089.42991469  .00001300  00000-0  99741-4 0  9997,2 54185  53.2165 150.8862 0001495  70.1720 289.9433 15.08841218 23532,6917.877,95.437,540.776,538.707,0.0
54185.0,STARLINK-5235,PAYLOAD,2023-03-31 03:48:19,15.08842477,0.0001627,53.2159,147.615,68.1796,291.9369,0.00017398,2.482e-05,0.0,0 STARLINK-5235,1 54185U 22141AE  23090.15855453  .00002482  00000-0  17398-3 0  9990,2 54185  53.2159 147.6150 0001627  68.1796 291.9369 15.08842477 23872,6917.873,95.437,540.863,538.612,0.0
54185.0,STARLINK-5235,PAYLOAD,2023-04-01 03:39:06,15.08837664,0.0001689,53.2162,143.155,80.1549,279.9634,8.0726e-05,9.97e-06,0.0,0 STARLINK-5235,1 54185U 22141AE  23091.15215658  .00000997  00000-0  80726-4 0  9993,2 54185  53.2162 143.1550 0001689  80.1549 279.9634 15.08837664 24020,6917.888,95.438,540.921,538.584,0.0
54185.0,STARLINK-5235,PAYLOAD,2023-04-01 10:00:39,15.08835287,0.0001629,53.2171,141.9627,103.9886,256.1287,5.3393e-06,-2.03e-06,0.0,0 STARLINK-5235,1 54185U 22141AE  23091.41711837 -.00000203  00000-0  53393-5 0  9994,2 54185  53.2171 141.9627 0001629 103.9886 256.1287 15.08835287 23831,6917.895,95.438,540.887,538.633,0.0
54185.0,STARLINK-5235,PAYLOAD,2023-04-02 11:26:48,15.08843501,0.0001732,53.2179,137.2057,102.2992,257.8195,-3.1727e-06,-3.39e-06,0.0,0 STARLINK-5235,1 54185U 22141AE  23092.47695573 -.00000339  00000-0 -31727-5 0  9997,2 54185  53.2179 137.2057 0001732 102.2992 257.8195 15.08843501 24227,6917.87,95.437,540.933,538.537,0.0
54185.0,STARLINK-5235,PAYLOAD,2023-04-02 13:02:11,15.08844455,0.0001674,53.217,136.9066,102.3119,257.8061,1.6706e-05,-2.2e-07,0.0,0 STARLINK-5235,1 54185U 22141AE  23092.54319436 -.00000022  00000-0  16706-4 0  9993,2 54185  53.2170 136.9066 0001674 102.3119 257.8061 15.08844455 24008,6917.867,95.437,540.89,538.574,0.0
54185.0,STARLINK-5235,PAYLOAD,2023-04-02 19:23:44,15.08846729,0.0001441,53.217,135.7171,98.7721,261.3434,-1.4086e-05,-5.12e-06,0.0,0 STARLINK-5235,1 54185U 22141AE  23092.80815293 -.00000512  00000-0 -14086-4 0  9998,2 54185  53.2170 135.7171 0001441  98.7721 261.3434 15.08846729 24045,6917.86,95.437,540.722,538.728,0.0
54185.0,STARLINK-5235,PAYLOAD,2023-04-03 03:20:40,15.08832938,0.0001418,53.2177,134.2295,103.7904,256.3246,6.9671e-05,8.21e-06,0.0,0 STARLINK-5235,1 54185U 22141AE  23093.13936148  .00000821  00000-0  69671-4 0  9999,2 54185  53.2177 134.2295 0001418 103.7904 256.3246 15.08832938 24320,6917.902,95.438,540.748,538.786,0.0
54185.0,STARLINK-5235,PAYLOAD,2023-04-03 12:52:59,15.08836026,0.0001402,53.2166,132.4463,86.5707,273.5446,8.635e-05,1.086e-05,0.0,0 STARLINK-5235,1 54185U 22141AE  23093.53680105  .00001086  00000-0  86350-4 0  9999,2 54185  53.2166 132.4463 0001402  86.5707 273.5446 15.08836026 24153,6917.893,95.438,540.727,538.788,0.0
54185.0,STARLINK-5235,PAYLOAD,2023-04-04 07:57:36,15.08845702,0.0001252,53.216,128.8781,88.0215,272.0921,6.7701e-05,7.9e-06,0.0,0 STARLINK-5235,1 54185U 22141AE  23094.33167638  .00000790  00000-0  67701-4 0  9999,2 54185  53.2160 128.8781 0001252  88.0215 272.0921 15.08845702 24505,6917.863,95.437,540.594,538.862,0.0
54185.0,STARLINK-5235,PAYLOAD,2023-04-05 03:02:14,15.08839272,0.0001384,53.2172,125.3089,98.417,261.6979,2.7845e-05,1.55e-06,0.0,0 STARLINK-5235,1 54185U 22141AE  23095.12656144  .00000155  00000-0  27845-4 0  9992,2 54185  53.2172 125.3089 0001384  98.4170 261.6979 15.08839272 24627,6917.883,95.438,540.705,538.79,0.0
54185.0,STARLINK-5235,PAYLOAD,2023-04-05 09:23:47,15.08836608,0.000127,53.2164,124.12,87.8208,272.2929,2.502e-05,1.1e-06,0.0,0 STARLINK-5235,1 54185U 22141AE  23095.39152378  .00000110  00000-0  25020-4 0  9995,2 54185  53.2164 124.1200 0001270  87.8208 272.2929 15.08836608 24430,6917.891,95.438,540.634,538.877,0.0
54185.0,STARLINK-5235,PAYLOAD,2023-04-06 09:14:34,15.088448,0.0001359,53.2171,119.6601,91.5745,268.5403,4.4829e-05,4.26e-06,0.0,0 STARLINK-5235,1 54185U 22141AE  23096.38511708  .00000426  00000-0  44829-4 0  9999,2 54185  53.2171 119.6601 0001359  91.5745 268.5403 15.08844800 24818,6917.866,95.437,540.671,538.791,0.0
54185.0,STARLINK-5235,PAYLOAD,2023-04-07 10:40:44,15.08842612,0.0001404,53.2173,114.9013,85.7397,274.3756,8.7126e-05,1.099e-05,0.0,0 STARLINK-5235,1 54185U 22141AE  23097.44495695  .00001099  00000-0  87126-4 0  9997,2 54185  53.2173 114.9013 0001404  85.7397 274.3756 15.08842612 24976,6917.872,95.437,540.709,538.766,0.0
54185.0,STARLINK-5235,PAYLOAD,2023-04-07 18:37:40,15.08829573,0.0001469,53.2174,113.4131,90.9804,269.1356,0.00014415,2.006e-05,0.0,0 STARLINK-5235,1 54185U 22141AE  23097.77616426  .00002006  00000-0  14415-3 0  9999,2 54185  53.2174 113.4131 0001469  90.9804 269.1356 15.08829573 25020,6917.912,95.438,540.794,538.761,0.0
54185.0,STARLINK-5235,PAYLOAD,2023-04-08 07:20:45,15.08843631,0.0001328,53.2168,111.0347,119.2471,240.8654,-2.9883e-05,-7.64e-06,0.0,0 STARLINK-5235,1 54185U 22141AE  23098.30607848 -.00000764  00000-0 -29883-4 0  9994,2 54185  53.2168 111.0347 0001328 119.2471 240.8654 15.08843631 25102,6917.869,95.437,540.653,538.816,0.0
54185.0,STARLINK-5235,PAYLOAD,2023-04-09 00:50:00,15.08834407,0.0001264,53.2169,107.7671,84.3635,275.7501,-3.3743e-06,-3.42e-06,0.0,0 STARLINK-5235,1 54185U 22141AE  23099.03472594 -.00000342  00000-0 -33743-5 0  9996,2 54185  53.2169 107.7671 0001264  84.3635 275.7501 15.08834407 25219,6917.897,95.438,540.637,538.888,0.0
54185.0,STARLINK-5235,PAYLOAD,2023-04-09 07:11:32,15.08834195,0.0001265,53.2158,106.5736,95.2389,264.8748,-1.7853e-05,-5.72e-06,0.0,0 STARLINK-5235,1 54185U 22141AE  23099.29968646 -.00000572  00000-0 -17853-4 0  9990,2 54185  53.2158 106.5736 0001265  95.2389 264.8748 15.08834195 25029,6917.898,95.438,540.638,538.888,0.0
54185.0,STARLINK-5235,PAYLOAD,2023-04-10 07:02:19,15.08843143,0.000131,53.2177,102.1162,90.1124,270.0018,0.00010351,1.36e-05,0.0,0 STARLINK-5235,1 54185U 22141AE  23100.29327901  .00001360  00000-0  10351-3 0  9995,2 54185  53.2177 102.1162 0001310  90.1124 270.0018 15.08843143 25401,6917.871,95.437,540.642,538.83,0.0
54185.0,STARLINK-5235,PAYLOAD,2023-04-10 16:34:38,15.08838129,0.0001285,53.2174,100.3307,92.2152,267.8988,8.0281e-05,9.9e-06,0.0,0 STARLINK-5235,1 54185U 22141AE  23100.69072277  .00000990  00000-0  80281-4 0  9990,2 54185  53.2174 100.3307 0001285  92.2152 267.8988 15.08838129 25233,6917.886,95.438,540.64,538.862,0.0
54185.0,STARLINK-5235,PAYLOAD,2023-04-11 13:14:39,15.08843437,0.0001306,53.2183,96.4665,97.4007,262.7134,8.7325e-05,1.102e-05,0.0,0 STARLINK-5235,1 54185U 22141AE  23101.55184040  .00001102  00000-0  87325-4 0  9990,2 54185  53.2183  96.4665 0001306  97.4007 262.7134 15.08843437 25364,6917.87,95.437,540.638,538.831,0.0
54185.0,STARLINK-5235,PAYLOAD,2023-04-11 16:25:26,15.08829074,0.0001069,53.2184,95.8726,99.6375,260.4737,-5.66e-05,-1.188e-05,0.0,0 STARLINK-5235,1 54185U 22141AE  23101.68433315 -.00001188  00000-0 -56600-4 0  9994,2 54185  53.2184  95.8726 0001069  99.6375 260.4737 15.08829074 25617,6917.914,95.438,540.518,539.039,0.0
54185.0,STARLINK-5235,PAYLOAD,2023-04-12 09:54:40,15.08840086,0.0001188,53.2178,92.5994,90.3358,269.777,-2.5128e-07,-2.92e-06,0.0,0 STARLINK-5235,1 54185U 22141AE  23102.41296706 -.00000292  00000-0 -25128-6 0  9995,2 54185  53.2178  92.5994 0001188  90.3358 269.7770 15.08840086 25729,6917.88,95.438,540.567,538.923,0.0
54185.0,STARLINK-5235,PAYLOAD,2023-04-13 06:34:40,15.08843395,0.0001108,53.2174,88.7331,87.6487,272.4632,7.6046e-05,9.23e-06,0.0,0 STARLINK-5235,1 54185U 22141AE  23103.27408490  .00000923  00000-0  76046-4 0  9997,2 54185  53.2174  88.7331 0001108  87.6487 272.4632 15.08843395 25624,6917.87,95.437,540.502,538.969,0.0
54185.0,STARLINK-5235,PAYLOAD,2023-04-14 04:50:03,15.0887718,0.0001194,53.2181,84.5713,102.1896,257.923,-0.00030735,-5.181e-05,0.0,0 STARLINK-5235,1 54185U 22141AE  23104.20143436 -.00005181  00000-0 -30735-3 0  9994,2 54185  53.2181  84.5713 0001194 102.1896 257.9230 15.08877180 25993,6917.767,95.435,540.458,538.806,0.0
54185.0,STARLINK-5235,PAYLOAD,2023-04-14 11:11:36,15.08853826,0.0001059,53.2176,83.3805,78.6396,281.4715,0.00020602,2.994e-05,0.0,0 STARLINK-5235,1 54185U 22141AE  23104.46639437  .00002994  00000-0  20602-3 0  9992,2 54185  53.2176  83.3805 0001059  78.6396 281.4715 15.08853826 26035,6917.838,95.437,540.436,538.971,0.0
54185.0,STARLINK-5235,PAYLOAD,2023-04-14 15:57:47,15.08827381,0.0001071,53.2178,82.4892,86.1816,273.9299,-3.8626e-05,-9.02e-06,0.0,0 STARLINK-5235,1 54185U 22141AE  23104.66513698 -.00000902  00000-0 -38626-4 0  9999,2 54185  53.2178  82.4892 0001071  86.1816 273.9299 15.08827381 26061,6917.919,95.438,540.525,539.043,0.0
